MOVE-IIB                
1 44398U 19038N   23015.66816930  .00042535  00000+0  16633-2 0  9998
2 44398  97.6527 353.1445 0020802 109.1961 251.1530 15.25517045195300
SONATE                  
1 44400U 19038Q   23015.37484407  .00014792  00000+0  74105-3 0  9993
2 44400  97.6678 350.4937 0024127 119.7635 240.6002 15.17218375195038
LUCKY-7                 
1 44406U 19038W   23015.34573448  .00019101  00000+0  91652-3 0  9995
2 44406  97.6654 351.2851 0023013 116.5224 243.8373 15.18687504195080
BEESAT 9                
1 44412U 19038AC  23015.67246267  .00026468  00000+0  11720-2 0  9995
2 44412  97.6614 352.4170 0020410 116.9894 243.3428 15.21435576194905
JAISAT-1                
1 44419U 19038F   23015.65933195  .00025579  00000+0  11190-2 0  9996
2 44419  97.6614 353.3999 0019604 114.0407 246.2882 15.21870836195272
DUCHIFAT-3              
1 44854U 19089C   23015.87020910  .00009186  00000+0  67382-3 0  9992
2 44854  36.9634 279.4979 0005165 161.9624 279.9119 15.03040627169889
EYESAT-NANO             
1 44877U 19092E   23015.79474431  .00035855  00000+0  12913-2 0  9994
2 44877  97.4586 204.4377 0010367 336.1719  23.9039 15.28435237170728
ORBITAL FACTORY 2 (OF-2)
1 45113U 19071C   23015.19630617  .00161389  00000+0  15476-2 0  9998
2 45113  51.6318  86.1513 0005807 267.7243  92.3087 15.65579241166271
M2 PATHFINDER           
1 45727U 20037E   23015.36794571  .00003957  00000+0  38782-3 0  9994
2 45727  97.7440 192.2259 0013602  55.5784 304.6780 14.92749994138439
NETSAT-4                
1 46504U 20068U   23013.60570211  .00006010  00000+0  42794-3 0  9991
2 46504  97.7461 318.4118 0011566 344.2220  15.8793 15.04945789125639
NETSAT-3                
1 46505U 20068V   23013.56100069  .00006536  00000+0  46562-3 0  9997
2 46505  97.7455 318.2500 0010195 353.4509   6.6627 15.04900611125634
NETSAT-1                
1 46506U 20068W   23013.78506031  .00006886  00000+0  49131-3 0  9994
2 46506  97.7435 318.3810 0009813 358.5177   1.6155 15.04827161125662
NETSAT-2                
1 46507U 20068X   23013.79552876  .00006474  00000+0  46190-3 0  9999
2 46507  97.7450 318.3858 0009376   5.6294 354.5058 15.04858280125619
SAI-1 NANOCONNECT-2     
1 47701U 21015C   23015.47372238  .00043976  00000+0  13310-2 0  9993
2 47701  97.4041  96.9635 0010690  62.4300 297.8027 15.33996455104634
WILDTRACKCUBE-SIMBA     
1 47941U 21022K   23015.78038524  .00008865  00000+0  55916-3 0  9995
2 47941  97.5140 275.7557 0021526 136.7704 308.6843 15.09151259 99991
BEESAT-6                
1 47957U 21022AB  23015.69631590  .00021174  00000+0  12177-2 0  9993
2 47957  97.5110 276.3551 0020149 134.1696 226.1195 15.12315829 99834
SMOG-1                  
1 47964U 21022AJ  23015.67001241  .00023249  00000+0  12790-2 0  9999
2 47964  97.5140 277.8976 0018567 122.7696 237.5328 15.13912370 98946
MMSATS-1                
1 47976U 98067SJ  23015.78059833  .00115253  00000+0  69909-3 0  9999
2 47976  51.6373 328.2384 0003730  84.7224 356.5186 15.76670174103529
BCCSAT-1                
1 48041U 21022AK  23015.66240052  .00020770  00000+0  11853-2 0  9995
2 48041  97.5142 277.2020 0015614 121.3625 238.9136 15.12668082 98877
BEESAT-5                
1 48083U 21022AM  23015.44603223  .00027288  00000+0  15414-2 0  9998
2 48083  97.5082 276.1685 0020134 134.3026 225.9860 15.12906829 98934
BEESAT-7                
1 48084U 21022AN  23015.47403884  .00025261  00000+0  14412-2 0  9999
2 48084  97.5105 276.1780 0019935 134.7975 225.4881 15.12568782 98526
BEESAT-8                
1 48085U 21022AP  23014.66028770  .00015695  00000+0  92234-3 0  9996
2 48085  97.5121 275.2823 0020190 138.0121 222.2662 15.11601700 98954
LEDSAT                  
1 49069U 21073D   23015.76667321  .00011287  00000+0  67882-3 0  9992
2 49069  97.5021  89.4441 0024573 287.3736  72.4807 15.10760746 77864
HSU-SAT1                
1 53462U 98067UB  23015.35458945  .00202848  00000+0  15619-2 0  9991
2 53462  51.6343 355.6085 0006137  27.9181 332.2145 15.70806611 24338
FUTABA                  
1 53463U 98067UC  23014.96964466  .00325082  00000+0  18425-2 0  9992
2 53463  51.6319 355.2590 0006291  43.7256 316.4242 15.77547825 24304
TUMNANOSAT              
1 53464U 98067UD  23015.63303355  .00637310  00000+0  21243-2 0  9994
2 53464  51.6302 349.1595 0006403  74.4543 285.7169 15.88082019 24441
1998-067UL              
1 54534U 98067UL  23015.36300884  .00094139  00000+0  13736-2 0  9991
2 54534  51.6414   4.6949 0002503 304.3126  55.7628 15.54891954  6892
1998-067UM              
1 54535U 98067UM  23015.70713450  .00090412  00000+0  12867-2 0  9991
2 54535  51.6434   2.8813 0001036 300.3032 231.9144 15.55591870  6949
1998-067UN              
1 54536U 98067UN  23015.83005693  .00069146  00000+0  10276-2 0  9991
2 54536  51.6425   2.4159 0003196 306.1255 122.5486 15.54524872  6928
1998-067UP              
1 54537U 98067UP  23015.82353568  .00077022  00000+0  11232-2 0  9993
2 54537  51.6421   2.3722 0003018 311.7598 115.7955 15.54995358  6965
MARIO                   
1 55123U 98067UQ  23015.35379504  .00102521  00000+0  16164-2 0  9993
2 55123  51.6423   5.3831 0001820 335.1123  24.9779 15.52719959  2696
NUTSAT                  
1 55124U 98067UR  23014.96599448  .00148478  00000+0  22830-2 0  9999
2 55124  51.6421   7.2935 0001418 335.5372  24.5550 15.53213665  2624
LORIS                   
1 55125U 98067US  23015.67760315  .00078238  00000+0  12533-2 0  9997
2 55125  51.6422   3.7963 0002696 324.9635  35.1177 15.52401865  2758
ORCASAT                 
1 55126U 98067UT  23015.48562942  .00071827  00000+0  11632-2 0  9999
2 55126  51.6427   4.7635 0002943 320.6764  39.4012 15.52135119  2720
DANTESAT                
1 55127U 98067UU  23015.53512491  .00988138  00000+0  75904-2 0  9994
2 55127  51.6386   3.5892 0008366 128.4272 231.7477 15.68940348  2705
TJREVERB                
1 55128U 98067UV  23015.22992048  .00082846  00000+0  13436-2 0  9994
2 55128  51.6426   6.0553 0003654 295.5358  64.5254 15.52029451  2676
SPORT                   
1 55129U 98067UW  23015.49140219  .00049206  00000+0  82597-3 0  9997
2 55129  51.6426   4.8007 0002073 282.7072  77.3686 15.51296095  2717
PETITSAT                
1 55130U 98067UX  23015.55514952  .00121176  00000+0  19582-2 0  9995
2 55130  51.6426   4.4771 0001552 265.0982  94.9830 15.51948453  2671
1998-067UY              
1 55181U 98067UY  23015.68684802  .00088695  00000+0  14493-2 0  9991
2 55181  51.6423   3.8564 0003295 224.4642 135.6084 15.51790004  1451
HSKSAT                  
1 55182U 98067UZ  23015.68647209  .00063068  00000+0  10413-2 0  9997
2 55182  51.6423   3.8541 0002795 209.2116 150.8718 15.51651383  1468
1998-067VA              
1 55183U 98067VA  23015.36474590  .00058300  00000+0  96945-3 0  9992
2 55183  51.6428   5.4551 0004998 306.0352  54.0174 15.51477437  1410
BEIJING 1               
1 28890U 05043A   23015.77821664  .00000783  00000+0  16687-3 0  9999
2 28890  98.1389 139.5996 0014213 225.8688 134.1352 14.61591172918159
HJ-1A                   
1 33320U 08041A   23015.87282669  .00000958  00000+0  13893-3 0  9991
2 33320  97.6581  43.7503 0019425 260.6521  99.2500 14.78065708773765
HJ-1B                   
1 33321U 08041B   23015.82097420  .00002045  00000+0  28668-3 0  9991
2 33321  97.6730  47.6927 0032503 280.3012  79.4558 14.78186012773755
YAOGAN 4                
1 33446U 08061A   23015.82437227  .00001467  00000+0  21141-3 0  9990
2 33446  97.8391 314.7411 0016470 161.8224 198.3579 14.77684805760951
DEIMOS-1                
1 35681U 09041A   23015.80244943  .00000826  00000+0  13819-3 0  9992
2 35681  97.6907 220.7370 0000030 320.2066  39.9155 14.72242853723019
UK-DMC 2                
1 35683U 09041C   23015.77911937  .00001224  00000+0  20374-3 0  9991
2 35683  97.7106 182.6119 0001266  65.9373 294.1979 14.71694472722730
RISAT 1                 
1 38248U 12017A   23015.74503515  .00007852  00000+0  44088-3 0  9995
2 38248  97.5489  29.9216 0002337 230.4901 129.6123 15.13601871590935
DMC3-FM1                
1 40715U 15032A   23015.84497175  .00001077  00000+0  14102-3 0  9999
2 40715  97.8205 263.1650 0005736 172.7534 187.3770 14.82369628404755
DMC3-FM2                
1 40716U 15032B   23015.86812567  .00001088  00000+0  14227-3 0  9998
2 40716  97.8250 263.9409 0007484 179.4686 180.6549 14.82383846404769
DMC3-FM3                
1 40717U 15032C   23015.82148707  .00001080  00000+0  14142-3 0  9991
2 40717  97.8287 264.9023 0009209 178.5673 181.5574 14.82359898404753
NOAA 15                 
1 25338U 98030A   23015.78599741  .00000282  00000+0  13572-3 0  9994
2 25338  98.6239  47.3212 0011021  43.1657 317.0385 14.26223082283538
DMSP 5D-3 F15 (USA 147) 
1 25991U 99067A   23015.59210139  .00000354  00000+0  20034-3 0  9991
2 25991  99.0663  15.9494 0009369 311.6508 159.3022 14.16627811193826
DMSP 5D-3 F16 (USA 172) 
1 28054U 03048A   23015.85384473  .00000281  00000+0  17247-3 0  9991
2 28054  99.0044  12.9311 0008242  79.1798 346.9793 14.13728405993031
NOAA 18                 
1 28654U 05018A   23015.81228030  .00000290  00000+0  17983-3 0  9995
2 28654  98.9276  90.8505 0015183  91.9129 268.3782 14.12840335910056
METEOSAT-9 (MSG-2)      
1 28912U 05049B   23014.79137396  .00000145  00000+0  00000+0 0  9993
2 28912   6.4962  64.8854 0001143 198.5289 181.1195  1.00270817 62557
EWS-G1 (GOES 13)        
1 29155U 06018A   23015.58352156  .00000059  00000+0  00000+0 0  9995
2 29155   1.1225  92.8921 0004757 163.9669 129.5346  1.00265572 60991
DMSP 5D-3 F17 (USA 191) 
1 29522U 06050A   23015.76632873  .00000292  00000+0  17617-3 0  9991
2 29522  98.7602  31.7685 0010116  22.5591 337.6025 14.14162784835917
FENGYUN 3A              
1 32958U 08026A   23015.81738028  .00000283  00000+0  15631-3 0  9992
2 32958  98.5347 335.0954 0009607 125.0083 235.1997 14.18783977758444
